{
    "links": {
        "self": "http://www.neowsapp.com/rest/v1/neo/3442847?api_key=iIulBulltgU6a56xZRHN4H3l9WmuAYTsLGpBGhQ2"
    },
    "id": "3442847",
    "neo_reference_id": "3442847",
    "name": "(2008 YF29)",
    "designation": "2008 YF29",
    "nasa_jpl_url": "http://ssd.jpl.nasa.gov/sbdb.cgi?sstr=3442847",
    "absolute_magnitude_h": 24.1,
    "estimated_diameter": {
        "kilometers": {
            "estimated_diameter_min": 0.040230458,
            "estimated_diameter_max": 0.0899580388
        },
        "meters": {
            "estimated_diameter_min": 40.2304579834,
            "estimated_diameter_max": 89.9580388169
        },
        "miles": {
            "estimated_diameter_min": 0.0249980399,
            "estimated_diameter_max": 0.0558973165
        },
        "feet": {
            "estimated_diameter_min": 131.9896957704,
            "estimated_diameter_max": 295.1379320721
        }
    },
    "is_potentially_hazardous_asteroid": false,
    "close_approach_data": [
        {
            "close_approach_date": "1926-08-02",
            "close_approach_date_full": "1926-Aug-02 10:38",
            "epoch_date_close_approach": -1370092920000,
            "relative_velocity": {
                "kilometers_per_second": "3.9927919287",
                "kilometers_per_hour": "14374.0509434445",
                "miles_per_hour": "8931.4762653864"
            },
            "miss_distance": {
                "astronomical": "1.1002142863",
                "lunar": "427.9833573707",
                "kilometers": "164589713.774050181",
                "miles": "102271305.7557312578"
            },
            "orbiting_body": "Juptr"
        },
        {
            "close_approach_date": "2009-01-11",
            "close_approach_date_full": "2009-Jan-11 08:23",
            "epoch_date_close_approach": 1231662180000,
            "relative_velocity": {
                "kilometers_per_second": "10.5609999157",
                "kilometers_per_hour": "38019.5996966863",
                "miles_per_hour": "23623.9007115327"
            },
            "miss_distance": {
                "astronomical": "0.0248361356",
                "lunar": "9.6612567484",
                "kilometers": "3715432.984791172",
                "miles": "2308663.0026232936"
            },
            "orbiting_body": "Earth"
        }
    ],
    "orbital_data": {
        "orbit_id": "12",
        "orbit_determination_date": "2017-04-06 09:01:47",
        "first_observation_date": "2008-12-30",
        "last_observation_date": "2009-01-08",
        "data_arc_in_days": 9,
        "observations_used": 46,
        "orbit_uncertainty": "8",
        "minimum_orbit_intersection": ".00243577",
        "jupiter_tisserand_invariant": "3.212",
        "epoch_osculation": "2454833.5",
        "eccentricity": ".6161450022823723",
        "semi_major_axis": "2.43894134910421",
        "inclination": "1.442092252072676",
        "ascending_node_longitude": "169.6173638664813",
        "orbital_period": "1391.234894176419",
        "perihelion_distance": ".9361998259938242",
        "perihelion_argument": "333.3395321620185",
        "aphelion_distance": "3.941682872214596",
        "perihelion_time": "2454866.292385109676",
        "mean_anomaly": "351.5145467606519",
        "mean_motion": ".2587629173958523",
        "equinox": "J2000",
        "orbit_class": {
            "orbit_class_type": "APO",
            "orbit_class_description": "Near-Earth asteroid orbits which cross the Earth’s orbit similar to that of 1862 Apollo",
            "orbit_class_range": "a (semi-major axis) > 1.0 AU; q (perihelion) < 1.017 AU"
        }
    },
    "is_sentry_object": false
}